{
  "type": "FeatureCollection",
  "features": [
    {
      "type": "Feature",
      "properties": {
        "norad_id": 66576,
        "name": "STARLINK-35814",
        "group": "last-30-days",
        "lat": -24.880170445581253,
        "lon": -20.09118024282957,
        "alt_km": 416.69648101957864,
        "timestamp": "2025-12-11T05:00:25.075439+00:00",
        "meta_object_name": "STARLINK-35814",
        "meta_object_id": "2025-268V",
        "meta_epoch": "2025-12-10T22:00:03.000096",
        "meta_mean_motion": 15.50593442,
        "meta_eccentricity": 0.00018559,
        "meta_inclination": 43.0001,
        "meta_ra_of_asc_node": 131.7701,
        "meta_arg_of_pericenter": 270.2123,
        "meta_mean_anomaly": 116.3561,
        "meta_ephemeris_type": 0,
        "meta_classification_type": "U",
        "meta_norad_cat_id": 66576,
        "meta_element_set_no": 999,
        "meta_rev_at_epoch": 437,
        "meta_bstar": -0.00097223995,
        "meta_mean_motion_dot": -0.00056996,
        "meta_mean_motion_ddot": 0,
        "tle_line1": "1 66576U 25268V   25344.91670139 -.00056996  00000+0 -97224-3 0  9990",
        "tle_line2": "2 66576  43.0001 131.7701 0001855 270.2123 116.3561 15.50593442  4371"
      },
      "geometry": {
        "type": "Point",
        "coordinates": [
          -20.09118024282957,
          -24.880170445581253
        ]
      }
    },
    {
      "type": "Feature",
      "properties": {
        "norad_id": 66577,
        "name": "STARLINK-35815",
        "group": "last-30-days",
        "lat": -26.00780518124915,
        "lon": -18.36949431564334,
        "alt_km": 416.7609712525891,
        "timestamp": "2025-12-11T05:00:25.075449+00:00",
        "meta_object_name": "STARLINK-35815",
        "meta_object_id": "2025-268W",
        "meta_epoch": "2025-12-10T22:00:03.000096",
        "meta_mean_motion": 15.50592776,
        "meta_eccentricity": 0.00017812,
        "meta_inclination": 43.0002,
        "meta_ra_of_asc_node": 131.7657,
        "meta_arg_of_pericenter": 273.6263,
        "meta_mean_anomaly": 114.8541,
        "meta_ephemeris_type": 0,
        "meta_classification_type": "U",
        "meta_norad_cat_id": 66577,
        "meta_element_set_no": 999,
        "meta_rev_at_epoch": 437,
        "meta_bstar": -0.00020048162,
        "meta_mean_motion_dot": -0.00012091,
        "meta_mean_motion_ddot": 0,
        "tle_line1": "1 66577U 25268W   25344.91670139 -.00012091  00000+0 -20048-3 0  9999",
        "tle_line2": "2 66577  43.0002 131.7657 0001781 273.6263 114.8541 15.50592776  4373"
      },
      "geometry": {
        "type": "Point",
        "coordinates": [
          -18.36949431564334,
          -26.00780518124915
        ]
      }
    },
    {
      "type": "Feature",
      "properties": {
        "norad_id": 66578,
        "name": "STARLINK-35743",
        "group": "last-30-days",
        "lat": -27.106754501210343,
        "lon": -16.627690044195294,
        "alt_km": 416.94379605675294,
        "timestamp": "2025-12-11T05:00:25.075461+00:00",
        "meta_object_name": "STARLINK-35743",
        "meta_object_id": "2025-268X",
        "meta_epoch": "2025-12-10T22:00:03.000096",
        "meta_mean_motion": 15.50600712,
        "meta_eccentricity": 0.00016375,
        "meta_inclination": 43.0001,
        "meta_ra_of_asc_node": 131.7606,
        "meta_arg_of_pericenter": 273.9792,
        "meta_mean_anomaly": 116.4209,
        "meta_ephemeris_type": 0,
        "meta_classification_type": "U",
        "meta_norad_cat_id": 66578,
        "meta_element_set_no": 999,
        "meta_rev_at_epoch": 437,
        "meta_bstar": -0.0011792329,
        "meta_mean_motion_dot": -0.00068969,
        "meta_mean_motion_ddot": 0,
        "tle_line1": "1 66578U 25268X   25344.91670139 -.00068969  00000+0 -11792-2 0  9990",
        "tle_line2": "2 66578  43.0001 131.7606 0001637 273.9792 116.4209 15.50600712  4376"
      },
      "geometry": {
        "type": "Point",
        "coordinates": [
          -16.627690044195294,
          -27.106754501210343
        ]
      }
    },
    {
      "type": "Feature",
      "properties": {
        "norad_id": 66579,
        "name": "STARLINK-35868",
        "group": "last-30-days",
        "lat": -28.18457840336825,
        "lon": -14.849927506207267,
        "alt_km": 416.9365620709741,
        "timestamp": "2025-12-11T05:00:25.075471+00:00",
        "meta_object_name": "STARLINK-35868",
        "meta_object_id": "2025-268Y",
        "meta_epoch": "2025-12-10T22:00:03.000096",
        "meta_mean_motion": 15.50601068,
        "meta_eccentricity": 0.00017225,
        "meta_inclination": 43.0001,
        "meta_ra_of_asc_node": 131.7558,
        "meta_arg_of_pericenter": 273.3636,
        "meta_mean_anomaly": 118.9491,
        "meta_ephemeris_type": 0,
        "meta_classification_type": "U",
        "meta_norad_cat_id": 66579,
        "meta_element_set_no": 999,
        "meta_rev_at_epoch": 437,
        "meta_bstar": -0.001122811,
        "meta_mean_motion_dot": -0.00065714,
        "meta_mean_motion_ddot": 0,
        "tle_line1": "1 66579U 25268Y   25344.91670139 -.00065714  00000+0 -11228-2 0  9990",
        "tle_line2": "2 66579  43.0001 131.7558 0001722 273.3636 118.9491 15.50601068  4374"
      },
      "geometry": {
        "type": "Point",
        "coordinates": [
          -14.849927506207267,
          -28.18457840336825
        ]
      }
    },
    {
      "type": "Feature",
      "properties": {
        "norad_id": 66580,
        "name": "STARLINK-35872",
        "group": "last-30-days",
        "lat": -29.2437277864927,
        "lon": -13.02736863823478,
        "alt_km": 417.0487487554801,
        "timestamp": "2025-12-11T05:00:25.075481+00:00",
        "meta_object_name": "STARLINK-35872",
        "meta_object_id": "2025-268Z",
        "meta_epoch": "2025-12-10T22:00:03.000096",
        "meta_mean_motion": 15.50609733,
        "meta_eccentricity": 0.000165,
        "meta_inclination": 43.0001,
        "meta_ra_of_asc_node": 131.7513,
        "meta_arg_of_pericenter": 275.8488,
        "meta_mean_anomaly": 118.382,
        "meta_ephemeris_type": 0,
        "meta_classification_type": "U",
        "meta_norad_cat_id": 66580,
        "meta_element_set_no": 999,
        "meta_rev_at_epoch": 437,
        "meta_bstar": -0.0013996954,
        "meta_mean_motion_dot": -0.00081694,
        "meta_mean_motion_ddot": 0,
        "tle_line1": "1 66580U 25268Z   25344.91670139 -.00081694  00000+0 -13997-2 0  9992",
        "tle_line2": "2 66580  43.0001 131.7513 0001650 275.8488 118.3820 15.50609733  4376"
      },
      "geometry": {
        "type": "Point",
        "coordinates": [
          -13.02736863823478,
          -29.2437277864927
        ]
      }
    },
    {
      "type": "Feature",
      "properties": {
        "norad_id": 66581,
        "name": "STARLINK-35744",
        "group": "last-30-days",
        "lat": -30.255979193138074,
        "lon": -11.207950950155631,
        "alt_km": 417.0882206007718,
        "timestamp": "2025-12-11T05:00:25.075491+00:00",
        "meta_object_name": "STARLINK-35744",
        "meta_object_id": "2025-268AA",
        "meta_epoch": "2025-12-10T22:00:03.000096",
        "meta_mean_motion": 15.50512103,
        "meta_eccentricity": 0.0001573,
        "meta_inclination": 43.0001,
        "meta_ra_of_asc_node": 131.7455,
        "meta_arg_of_pericenter": 267.1355,
        "meta_mean_anomaly": 129.0411,
        "meta_ephemeris_type": 0,
        "meta_classification_type": "U",
        "meta_norad_cat_id": 66581,
        "meta_element_set_no": 999,
        "meta_rev_at_epoch": 432,
        "meta_bstar": 0.00062411966,
        "meta_mean_motion_dot": 0.00036355,
        "meta_mean_motion_ddot": 0,
        "tle_line1": "1 66581U 25268AA  25344.91670139  .00036355  00000+0  62412-3 0  9992",
        "tle_line2": "2 66581  43.0001 131.7455 0001573 267.1355 129.0411 15.50512103  4327"
      },
      "geometry": {
        "type": "Point",
        "coordinates": [
          -11.207950950155631,
          -30.255979193138074
        ]
      }
    },
    {
      "type": "Feature",
      "properties": {
        "norad_id": 66582,
        "name": "STARLINK-35746",
        "group": "last-30-days",
        "lat": -31.277006394188483,
        "lon": -9.282796504093225,
        "alt_km": 417.0773462810339,
        "timestamp": "2025-12-11T05:00:25.075501+00:00",
        "meta_object_name": "STARLINK-35746",
        "meta_object_id": "2025-268AB",
        "meta_epoch": "2025-12-10T22:00:03.000096",
        "meta_mean_motion": 15.50607666,
        "meta_eccentricity": 0.00017872,
        "meta_inclination": 43,
        "meta_ra_of_asc_node": 131.7411,
        "meta_arg_of_pericenter": 277.1193,
        "meta_mean_anomaly": 120.9447,
        "meta_ephemeris_type": 0,
        "meta_classification_type": "U",
        "meta_norad_cat_id": 66582,
        "meta_element_set_no": 999,
        "meta_rev_at_epoch": 437,
        "meta_bstar": -0.0013256479,
        "meta_mean_motion_dot": -0.00077428,
        "meta_mean_motion_ddot": 0,
        "tle_line1": "1 66582U 25268AB  25344.91670139 -.00077428  00000+0 -13256-2 0  9992",
        "tle_line2": "2 66582  43.0000 131.7411 0001787 277.1193 120.9447 15.50607666  4370"
      },
      "geometry": {
        "type": "Point",
        "coordinates": [
          -9.282796504093225,
          -31.277006394188483
        ]
      }
    }
  ]
}